{"fetched_at":"2026-07-08T07:04:16.930Z","source":"https://celestrak.org/NORAD/elements/gp.php?NAME=SENTINEL&FORMAT=JSON","constellation":"sentinel-6","records":[{"OBJECT_NAME":"SENTINEL-6A","OBJECT_ID":"2020-086A","EPOCH":"2026-07-07T18:36:52.399008","CLASSIFICATION_TYPE":"U","MEAN_MOTION":12.80930122,"ECCENTRICITY":0.0007809,"INCLINATION":66.0415,"RA_OF_ASC_NODE":92.2915,"ARG_OF_PERICENTER":269.9492,"MEAN_ANOMALY":90.0629,"EPHEMERIS_TYPE":0,"NORAD_CAT_ID":46984,"ELEMENT_SET_NO":999,"REV_AT_EPOCH":26296,"BSTAR":0.000014304,"MEAN_MOTION_DOT":-5.8e-7,"MEAN_MOTION_DDOT":0},{"OBJECT_NAME":"SENTINEL-6B","OBJECT_ID":"2025-264A","EPOCH":"2026-07-07T18:37:22.460160","CLASSIFICATION_TYPE":"U","MEAN_MOTION":12.80930125,"ECCENTRICITY":0.0007881,"INCLINATION":66.0415,"RA_OF_ASC_NODE":92.4168,"ARG_OF_PERICENTER":268.8088,"MEAN_ANOMALY":91.2024,"EPHEMERIS_TYPE":0,"NORAD_CAT_ID":66514,"ELEMENT_SET_NO":999,"REV_AT_EPOCH":2980,"BSTAR":0.000014985,"MEAN_MOTION_DOT":-5.8e-7,"MEAN_MOTION_DDOT":0}]}
